NORAD_CAT_ID,OBJECT_NAME,OBJECT_TYPE,EPOCH,MEAN_MOTION,ECCENTRICITY,INCLINATION,RA_OF_ASC_NODE,ARG_OF_PERICENTER,MEAN_ANOMALY,BSTAR,MEAN_MOTION_DOT,MEAN_MOTION_DDOT,TLE_LINE0,TLE_LINE1,TLE_LINE2,SEMIMAJOR_AXIS,PERIOD,APOGEE,PERIGEE,DECAYED
55283.0,STARLINK-5317,PAYLOAD,2023-11-04 09:41:34,14.98320019,0.0002838,70.0011,43.4149,273.104,86.9795,2.0957e-05,1.57e-06,0.0,0 STARLINK-5317,1 55283U 23010Q   23308.40387710  .00000157  00000-0  20957-4 0  9995,2 55283  70.0011  43.4149 0002838 273.1040  86.9795 14.98320019 44219,6950.224,96.108,574.061,570.116,0.0
55283.0,STARLINK-5317,PAYLOAD,2023-11-04 14:29:59,14.98313556,0.0002644,70.001,42.908,261.2303,98.8557,0.00020169,2.313e-05,0.0,0 STARLINK-5317,1 55283U 23010Q   23308.60415713  .00002313  00000-0  20169-3 0  9992,2 55283  70.0010  42.9080 0002644 261.2303  98.8557 14.98313556 44543,6950.244,96.108,573.946,570.271,0.0
55283.0,STARLINK-5317,PAYLOAD,2023-11-04 16:06:07,14.98323311,0.0002557,70.0012,42.7398,260.9485,99.1385,7.0705e-05,7.51e-06,0.0,0 STARLINK-5317,1 55283U 23010Q   23308.67091456  .00000751  00000-0  70705-4 0  9999,2 55283  70.0012  42.7398 0002557 260.9485  99.1385 14.98323311 44559,6950.214,96.107,573.856,570.301,0.0
55283.0,STARLINK-5317,PAYLOAD,2023-11-05 00:06:46,14.98331552,0.0002945,70.0012,41.9002,271.5686,88.5135,5.4365e-05,5.56e-06,0.0,0 STARLINK-5317,1 55283U 23010Q   23309.00470992  .00000556  00000-0  54365-4 0  9990,2 55283  70.0012  41.9002 0002945 271.5686  88.5135 14.98331552 44308,6950.188,96.107,574.1,570.006,0.0
55283.0,STARLINK-5317,PAYLOAD,2023-11-05 12:55:50,14.98344885,0.0002818,70.0009,40.5537,269.7159,90.3678,0.0002244,2.587e-05,0.0,0 STARLINK-5317,1 55283U 23010Q   23309.53877643  .00002587  00000-0  22440-3 0  9996,2 55283  70.0009  40.5537 0002818 269.7159  90.3678 14.98344885 44389,6950.147,96.106,573.97,570.053,0.0
55283.0,STARLINK-5317,PAYLOAD,2023-11-05 14:31:58,14.9834689,0.0002882,70.001,40.3856,269.8511,90.2318,0.0002314,2.67e-05,0.0,0 STARLINK-5317,1 55283U 23010Q   23309.60553456  .00002670  00000-0  23140-3 0  9998,2 55283  70.0010  40.3856 0002882 269.8511  90.2318 14.98346890 44699,6950.141,96.106,574.009,570.003,0.0
55283.0,STARLINK-5317,PAYLOAD,2023-11-05 16:08:06,14.98347653,0.0002813,70.0011,40.2181,269.2368,90.8469,0.00025141,2.909e-05,0.0,0 STARLINK-5317,1 55283U 23010Q   23309.67229296  .00002909  00000-0  25141-3 0  9995,2 55283  70.0011  40.2181 0002813 269.2368  90.8469 14.98347653 44701,6950.138,96.106,573.958,570.048,0.0
55283.0,STARLINK-5317,PAYLOAD,2023-11-06 00:08:46,14.98340098,0.0002943,70.0019,39.3744,264.8719,95.2104,0.00012667,1.419e-05,0.0,0 STARLINK-5317,1 55283U 23010Q   23310.00609790  .00001419  00000-0  12667-3 0  9999,2 55283  70.0019  39.3744 0002943 264.8719  95.2104 14.98340098 44451,6950.162,96.106,574.072,569.981,0.0
55283.0,STARLINK-5317,PAYLOAD,2023-11-06 14:33:58,14.98348484,0.0002503,70.0013,37.8614,257.3046,102.7833,0.00028593,3.322e-05,0.0,0 STARLINK-5317,1 55283U 23010Q   23310.60692590  .00003322  00000-0  28593-3 0  9995,2 55283  70.0013  37.8614 0002503 257.3046 102.7833 14.98348484 44849,6950.136,96.106,573.74,570.261,0.0
55283.0,STARLINK-5317,PAYLOAD,2023-11-06 16:10:06,14.9835243,0.0002854,70.0014,37.693,268.5264,91.5568,0.00028628,3.326e-05,0.0,0 STARLINK-5317,1 55283U 23010Q   23310.67368296  .00003326  00000-0  28628-3 0  9998,2 55283  70.0014  37.6930 0002854 268.5264  91.5568 14.98352430 44558,6950.124,96.106,573.972,570.005,0.0
55283.0,STARLINK-5317,PAYLOAD,2023-11-07 09:47:39,14.98307947,0.0002882,70.0006,35.8409,278.3696,81.7136,-0.00039818,-4.838e-05,0.0,0 STARLINK-5317,1 55283U 23010Q   23311.40809244 -.00004838  00000-0 -39818-3 0  9997,2 55283  70.0006  35.8409 0002882 278.3696  81.7136 14.98307947 44666,6950.261,96.108,574.129,570.123,0.0
55283.0,STARLINK-5317,PAYLOAD,2023-11-07 12:59:55,14.98306036,0.0003164,70.0003,35.5053,275.1716,84.9082,-0.00043744,-5.305e-05,0.0,0 STARLINK-5317,1 55283U 23010Q   23311.54161575 -.00005305  00000-0 -43744-3 0  9993,2 55283  70.0003  35.5053 0003164 275.1716  84.9082 14.98306036 44985,6950.267,96.109,574.331,569.933,0.0
55283.0,STARLINK-5317,PAYLOAD,2023-11-07 22:36:43,14.98324668,0.0003083,70.001,34.4949,276.6603,83.4205,-0.00033736,-4.115e-05,0.0,0 STARLINK-5317,1 55283U 23010Q   23311.94216550 -.00004115  00000-0 -33736-3 0  9999,2 55283  70.0010  34.4949 0003083 276.6603  83.4205 14.98324668 44742,6950.209,96.107,574.217,569.932,0.0
55283.0,STARLINK-5317,PAYLOAD,2023-11-08 11:25:46,14.98335778,0.0002856,70.0015,33.1484,273.5408,86.5424,4.7856e-05,4.78e-06,0.0,0 STARLINK-5317,1 55283U 23010Q   23312.47623264  .00000478  00000-0  47856-4 0  9997,2 55283  70.0015  33.1484 0002856 273.5408  86.5424 14.98335778 44823,6950.175,96.107,574.025,570.055,0.0
55283.0,STARLINK-5317,PAYLOAD,2023-11-08 13:01:54,14.98336219,0.0002708,70.0017,32.981,266.6612,93.4237,3.5136e-05,3.26e-06,0.0,0 STARLINK-5317,1 55283U 23010Q   23312.54299230  .00000326  00000-0  35136-4 0  9997,2 55283  70.0017  32.9810 0002708 266.6612  93.4237 14.98336219 45136,6950.174,96.107,573.921,570.157,0.0
55283.0,STARLINK-5317,PAYLOAD,2023-11-08 22:38:42,14.98359018,0.0002707,70.0018,31.9716,277.1335,82.9516,-0.00026806,-3.292e-05,0.0,0 STARLINK-5317,1 55283U 23010Q   23312.94354235 -.00003292  00000-0 -26806-3 0  9998,2 55283  70.0018  31.9716 0002707 277.1335  82.9516 14.98359018 45190,6950.103,96.105,573.85,570.087,0.0
55283.0,STARLINK-5317,PAYLOAD,2023-11-09 11:27:47,14.98323313,0.0002937,70.0011,30.6243,276.2561,83.8263,0.00055687,6.557e-05,0.0,0 STARLINK-5317,1 55283U 23010Q   23313.47763216  .00006557  00000-0  55687-3 0  9994,2 55283  70.0011  30.6243 0002937 276.2561  83.8263 14.98323313 44973,6950.214,96.107,574.12,570.037,0.0
55283.0,STARLINK-5317,PAYLOAD,2023-11-09 13:03:55,14.98324945,0.0002506,70.0025,30.4579,266.8599,93.2273,0.00054526,6.418e-05,0.0,0 STARLINK-5317,1 55283U 23010Q   23313.54439142  .00006418  00000-0  54526-3 0  9997,2 55283  70.0025  30.4579 0002506 266.8599  93.2273 14.98324945 45289,6950.209,96.107,573.815,570.332,0.0
55283.0,STARLINK-5317,PAYLOAD,2023-11-09 14:40:03,14.98327191,0.0002689,70.002,30.2893,270.5273,89.5578,0.00054755,6.446e-05,0.0,0 STARLINK-5317,1 55283U 23010Q   23313.61114996  .00006446  00000-0  54755-3 0  9997,2 55283  70.0020  30.2893 0002689 270.5273  89.5578 14.98327191 45297,6950.202,96.107,573.935,570.198,0.0
55283.0,STARLINK-5317,PAYLOAD,2023-11-10 11:29:48,14.9833864,0.0002898,70.0017,28.1007,276.4807,83.6022,9.7533e-06,2.3e-07,0.0,0 STARLINK-5317,1 55283U 23010Q   23314.47903481  .00000023  00000-0  97533-5 0  9995,2 55283  70.0017  28.1007 0002898 276.4807  83.6022 14.98338640 45128,6950.166,96.106,574.045,570.017,0.0
55283.0,STARLINK-5317,PAYLOAD,2023-11-10 14:42:04,14.98334763,0.0003113,70.0022,27.7641,257.4094,102.6717,-2.9088e-05,-4.4e-06,0.0,0 STARLINK-5317,1 55283U 23010Q   23314.61255473 -.00000440  00000-0 -29088-4 0  9996,2 55283  70.0022  27.7641 0003113 257.4094 102.6717 14.98334763 45441,6950.178,96.107,574.207,569.88,0.0
55283.0,STARLINK-5317,PAYLOAD,2023-11-11 11:31:49,14.98340086,0.0002657,70.0018,25.5754,270.2145,89.8709,-6.1589e-05,-8.28e-06,0.0,0 STARLINK-5317,1 55283U 23010Q   23315.48042853 -.00000828  00000-0 -61589-4 0  9990,2 55283  70.0018  25.5754 0002657 270.2145  89.8709 14.98340086 45272,6950.162,96.106,573.873,570.18,0.0
55283.0,STARLINK-5317,PAYLOAD,2023-11-11 13:07:57,14.98339213,0.0002813,70.0014,25.4067,271.6593,88.4244,-6.9935e-05,-9.27e-06,0.0,0 STARLINK-5317,1 55283U 23010Q   23315.54718918 -.00000927  00000-0 -69935-4 0  9992,2 55283  70.0014  25.4067 0002813 271.6593  88.4244 14.98339213 45583,6950.164,96.106,573.984,570.074,0.0
55283.0,STARLINK-5317,PAYLOAD,2023-11-11 14:44:05,14.98338222,0.0002889,70.0008,25.2368,274.7323,85.3506,-2.5373e-05,-3.96e-06,0.0,0 STARLINK-5317,1 55283U 23010Q   23315.61394862 -.00000396  00000-0 -25373-4 0  9996,2 55283  70.0008  25.2368 0002889 274.7323  85.3506 14.98338222 45593,6950.167,96.106,574.04,570.025,0.0
55283.0,STARLINK-5317,PAYLOAD,2023-11-12 03:33:09,14.9832138,0.0002919,70.0007,23.8904,273.0184,87.0641,0.00018077,2.064e-05,0.0,0 STARLINK-5317,1 55283U 23010Q   23316.14803091  .00002064  00000-0  18077-3 0  9998,2 55283  70.0007  23.8904 0002919 273.0184  87.0641 14.98321380 45375,6950.22,96.108,574.113,570.056,0.0
55283.0,STARLINK-5317,PAYLOAD,2023-11-12 13:09:58,14.98331813,0.0002887,70.001,22.8805,272.5036,87.5792,7.1116e-05,7.56e-06,0.0,0 STARLINK-5317,1 55283U 23010Q   23316.54858878  .00000756  00000-0  71116-4 0  9995,2 55283  70.0010  22.8805 0002887 272.5036  87.5792 14.98331813 45736,6950.187,96.107,574.059,570.046,0.0
55283.0,STARLINK-5317,PAYLOAD,2023-11-12 14:46:06,14.98315794,0.00028,70.001,22.7122,273.1422,86.9417,0.00039594,4.633e-05,0.0,0 STARLINK-5317,1 55283U 23010Q   23316.61535268  .00004633  00000-0  39594-3 0  9999,2 55283  70.0010  22.7122 0002800 273.1422  86.9417 14.98315794 45746,6950.237,96.108,574.048,570.156,0.0
55283.0,STARLINK-5317,PAYLOAD,2023-11-13 03:35:10,14.98317899,0.0002993,70.0009,21.3657,274.4227,85.659,0.00039944,4.675e-05,0.0,0 STARLINK-5317,1 55283U 23010Q   23317.14942792  .00004675  00000-0  39944-3 0  9997,2 55283  70.0009  21.3657 0002993 274.4227  85.6590 14.98317899 45524,6950.23,96.108,574.176,570.015,0.0
55283.0,STARLINK-5317,PAYLOAD,2023-11-13 11:35:50,14.98339585,0.0002553,70.001,20.5241,269.5753,90.5113,7.5986e-05,8.14e-06,0.0,0 STARLINK-5317,1 55283U 23010Q   23317.48322131  .00000814  00000-0  75986-4 0  9991,2 55283  70.0010  20.5241 0002553 269.5753  90.5113 14.98339585 45574,6950.163,96.106,573.803,570.254,0.0
55283.0,STARLINK-5317,PAYLOAD,2023-11-13 13:11:56,14.98393708,0.0002983,70.0009,20.3557,272.2725,87.8092,-0.00088807,-0.00010691,0.0,0 STARLINK-5317,1 55283U 23010Q   23317.54996510 -.00010691  00000-0 -88807-3 0  9997,2 55283  70.0009  20.3557 0002983 272.2725  87.8092 14.98393708 45883,6949.996,96.103,573.934,569.788,0.0
